[
	{
		"first": "Coby",
		"last": "Pugh",
		"street": "P.O. Box 314, 2982 Orci. Av.",
		"city": "Worcester",
		"state": "Worcestershire",
		"zip": "18548"
	},
	{
		"first": "Dieter",
		"last": "Chambers",
		"street": "9486 Vitae, St.",
		"city": "Woodstock",
		"state": "ON",
		"zip": "N6H 9W6"
	},
	{
		"first": "Noah",
		"last": "Lester",
		"street": "797-974 In Rd.",
		"city": "Palayankottai",
		"state": "TN",
		"zip": "F61 5CF"
	},
	{
		"first": "MacKenzie",
		"last": "Cole",
		"street": "361-7915 Congue, St.",
		"city": "Austin",
		"state": "Texas",
		"zip": "2871"
	},
	{
		"first": "Bethany",
		"last": "Carroll",
		"street": "P.O. Box 392, 5021 Litora Street",
		"city": "Bursa",
		"state": "Bursa",
		"zip": "6554"
	},
	{
		"first": "Chadwick",
		"last": "Delgado",
		"street": "Ap #343-2972 Vivamus Rd.",
		"city": "Christchurch",
		"state": "SI",
		"zip": "14068"
	},
	{
		"first": "Charlotte",
		"last": "Hoover",
		"street": "P.O. Box 367, 1234 Ultrices. Av.",
		"city": "Belfast",
		"state": "U",
		"zip": "6575"
	},
	{
		"first": "Marah",
		"last": "Walls",
		"street": "P.O. Box 299, 6867 A Street",
		"city": "Blevio",
		"state": "Lombardia",
		"zip": "0772TP"
	},
	{
		"first": "Ila",
		"last": "Johns",
		"street": "Ap #597-9683 Nunc, St.",
		"city": "Goulburn",
		"state": "New South Wales",
		"zip": "99362"
	},
	{
		"first": "Quinlan",
		"last": "Vazquez",
		"street": "P.O. Box 564, 4910 Class St.",
		"city": "Kozan",
		"state": "Adana",
		"zip": "55840"
	},
	{
		"first": "Cole",
		"last": "Head",
		"street": "892-4657 Convallis Av.",
		"city": "Collines-de-l'Outaouais",
		"state": "Quebec",
		"zip": "8554"
	},
	{
		"first": "Solomon",
		"last": "Whitaker",
		"street": "324-2154 Tristique Rd.",
		"city": "Lagos",
		"state": "Lagos",
		"zip": "9097"
	},
	{
		"first": "Chadwick",
		"last": "Beasley",
		"street": "5015 Nisl Ave",
		"city": "Rotorua",
		"state": "NI",
		"zip": "A84 7RR"
	},
	{
		"first": "Vaughan",
		"last": "Bullock",
		"street": "Ap #962-6127 Vulputate, Av.",
		"city": "San Lazzaro di Savena",
		"state": "Emilia-Romagna",
		"zip": "76467-351"
	},
	{
		"first": "Ifeoma",
		"last": "Harrison",
		"street": "362-7358 Ante Street",
		"city": "Istanbul",
		"state": "Istanbul",
		"zip": "9101"
	},
	{
		"first": "Gareth",
		"last": "Weeks",
		"street": "584-7132 Molestie Ave",
		"city": "Ełk",
		"state": "Warmińsko-mazurskie",
		"zip": "7697"
	},
	{
		"first": "Wang",
		"last": "Hutchinson",
		"street": "Ap #383-8525 Vivamus Rd.",
		"city": "Albacete",
		"state": "CM",
		"zip": "71095"
	},
	{
		"first": "Bianca",
		"last": "Barry",
		"street": "4114 Dis Ave",
		"city": "Galway",
		"state": "C",
		"zip": "3599LJ"
	},
	{
		"first": "Tamara",
		"last": "Mejia",
		"street": "5071 Lobortis Ave",
		"city": "Grey County",
		"state": "ON",
		"zip": "68799"
	},
	{
		"first": "Leslie",
		"last": "Coffey",
		"street": "9738 Facilisis. Ave",
		"city": "Tire",
		"state": "İz",
		"zip": "07536-651"
	},
	{
		"first": "Ezra",
		"last": "Mcgee",
		"street": "4483 Justo Street",
		"city": "Patarrá",
		"state": "San José",
		"zip": "85983"
	},
	{
		"first": "Amir",
		"last": "Dotson",
		"street": "Ap #707-5287 Malesuada. Avenue",
		"city": "Bolsward",
		"state": "Friesland",
		"zip": "3994"
	},
	{
		"first": "Lawrence",
		"last": "Slater",
		"street": "6336 Vel Rd.",
		"city": "Bellegem",
		"state": "WV",
		"zip": "00549"
	},
	{
		"first": "Graham",
		"last": "Schwartz",
		"street": "Ap #984-310 Fringilla Street",
		"city": "Körfez",
		"state": "Kocaeli",
		"zip": "28954"
	},
	{
		"first": "Fleur",
		"last": "Odom",
		"street": "917-5057 Integer Avenue",
		"city": "St. Thomas",
		"state": "Ontario",
		"zip": "748936"
	},
	{
		"first": "Cassady",
		"last": "England",
		"street": "Ap #574-3172 Suspendisse Av.",
		"city": "Dublin",
		"state": "L",
		"zip": "6371"
	},
	{
		"first": "Chase",
		"last": "Brewer",
		"street": "794-8483 Conubia Road",
		"city": "Vannes",
		"state": "Bretagne",
		"zip": "3572"
	},
	{
		"first": "Karyn",
		"last": "Goodwin",
		"street": "642-5009 Odio. St.",
		"city": "Siedlce",
		"state": "Mazowieckie",
		"zip": "2685HT"
	},
	{
		"first": "Yvonne",
		"last": "Floyd",
		"street": "P.O. Box 719, 8379 Semper Road",
		"city": "Istanbul",
		"state": "Ist",
		"zip": "14019"
	},
	{
		"first": "Talon",
		"last": "Gilliam",
		"street": "P.O. Box 879, 3134 Nunc Avenue",
		"city": "Okene",
		"state": "Kogi",
		"zip": "64828"
	},
	{
		"first": "Hedy",
		"last": "Horn",
		"street": "462-4932 Non Road",
		"city": "Istanbul",
		"state": "Ist",
		"zip": "49297"
	},
	{
		"first": "Yetta",
		"last": "Lindsay",
		"street": "Ap #692-670 Nullam Rd.",
		"city": "Augusta",
		"state": "Maine",
		"zip": "4929"
	},
	{
		"first": "Aspen",
		"last": "Gates",
		"street": "Ap #896-5203 Ligula St.",
		"city": "Berlin",
		"state": "BE",
		"zip": "1695"
	},
	{
		"first": "Isabella",
		"last": "Nielsen",
		"street": "Ap #108-3048 Aliquam Street",
		"city": "Fort Smith",
		"state": "Arkansas",
		"zip": "9201"
	},
	{
		"first": "Damian",
		"last": "Ryan",
		"street": "443-8073 Est Avenue",
		"city": "Bilbo",
		"state": "Euskadi",
		"zip": "955221"
	},
	{
		"first": "Savannah",
		"last": "Goff",
		"street": "Ap #278-2122 Faucibus Street",
		"city": "Swindon",
		"state": "WI",
		"zip": "25746-820"
	},
	{
		"first": "Giacomo",
		"last": "Bishop",
		"street": "Ap #591-2832 Dictum St.",
		"city": "Tacoma",
		"state": "Washington",
		"zip": "3587"
	},
	{
		"first": "Aurelia",
		"last": "Logan",
		"street": "Ap #371-3148 Donec Street",
		"city": "Vienna",
		"state": "Vienna",
		"zip": "295302"
	},
	{
		"first": "Leigh",
		"last": "Atkins",
		"street": "P.O. Box 426, 5958 Elit. St.",
		"city": "Blenheim",
		"state": "South Island",
		"zip": "05-664"
	},
	{
		"first": "Gisela",
		"last": "Hogan",
		"street": "P.O. Box 164, 6653 Augue St.",
		"city": "Manukau",
		"state": "North Island",
		"zip": "08217"
	},
	{
		"first": "Graham",
		"last": "Guthrie",
		"street": "629-3038 Velit Avenue",
		"city": "Vitry-sur-Seine",
		"state": "Île-de-France",
		"zip": "94504-688"
	},
	{
		"first": "Aimee",
		"last": "Petty",
		"street": "Ap #181-4248 Justo St.",
		"city": "Groenlo",
		"state": "Gelderland",
		"zip": "50901"
	},
	{
		"first": "Lila",
		"last": "Maldonado",
		"street": "Ap #850-5013 Hendrerit. Ave",
		"city": "Belfast",
		"state": "U",
		"zip": "Q08 5EE"
	},
	{
		"first": "Hanae",
		"last": "Rush",
		"street": "513-271 Dui, Street",
		"city": "Sunderland",
		"state": "DU",
		"zip": "E7E 9R9"
	},
	{
		"first": "Gavin",
		"last": "Albert",
		"street": "P.O. Box 327, 2216 Commodo Av.",
		"city": "Nederokkerzeel",
		"state": "Vlaams-Brabant",
		"zip": "36128"
	},
	{
		"first": "Brielle",
		"last": "Lambert",
		"street": "Ap #846-9942 Montes, Road",
		"city": "Berlin",
		"state": "BE",
		"zip": "3161"
	},
	{
		"first": "Jordan",
		"last": "Charles",
		"street": "2595 Velit Ave",
		"city": "Taupo",
		"state": "NI",
		"zip": "31710-981"
	},
	{
		"first": "Heidi",
		"last": "Curtis",
		"street": "Ap #476-7567 Posuere, Rd.",
		"city": "Birecik",
		"state": "Şanlıurfa",
		"zip": "22744"
	},
	{
		"first": "Edan",
		"last": "Nixon",
		"street": "Ap #343-1499 Vivamus Ave",
		"city": "Moorsele",
		"state": "WV",
		"zip": "06387"
	},
	{
		"first": "Buffy",
		"last": "Dennis",
		"street": "P.O. Box 372, 4978 Dolor. St.",
		"city": "Torrejón de Ardoz",
		"state": "MA",
		"zip": "1291"
	},
	{
		"first": "Kirsten",
		"last": "Greer",
		"street": "4218 Sed, Av.",
		"city": "Dublin",
		"state": "Leinster",
		"zip": "06287"
	},
	{
		"first": "Hollee",
		"last": "Nielsen",
		"street": "851-2226 Ut St.",
		"city": "Halisahar",
		"state": "West Bengal",
		"zip": "35239"
	},
	{
		"first": "Logan",
		"last": "Lewis",
		"street": "615-6411 Nunc. Rd.",
		"city": "Izmir",
		"state": "İz",
		"zip": "6771"
	},
	{
		"first": "Katell",
		"last": "Rocha",
		"street": "1977 Augue Rd.",
		"city": "West Valley City",
		"state": "Utah",
		"zip": "0403"
	},
	{
		"first": "Rose",
		"last": "Jensen",
		"street": "P.O. Box 545, 9017 Integer Street",
		"city": "Sosnowiec",
		"state": "SL",
		"zip": "KS4I 4JA"
	},
	{
		"first": "Jack",
		"last": "Larson",
		"street": "Ap #536-8609 Montes, St.",
		"city": "Belfast",
		"state": "U",
		"zip": "93244"
	},
	{
		"first": "Nina",
		"last": "Brennan",
		"street": "P.O. Box 305, 7082 Est. Street",
		"city": "Polatlı",
		"state": "Ank",
		"zip": "83527"
	},
	{
		"first": "Kieran",
		"last": "Green",
		"street": "Ap #999-4401 Sit St.",
		"city": "Dublin",
		"state": "L",
		"zip": "21818"
	},
	{
		"first": "Tanya",
		"last": "Mills",
		"street": "593 Lorem Street",
		"city": "Kano",
		"state": "KN",
		"zip": "9846"
	},
	{
		"first": "Lysandra",
		"last": "Prince",
		"street": "887-8427 Sed Street",
		"city": "Khandwa",
		"state": "MP",
		"zip": "1968"
	},
	{
		"first": "Constance",
		"last": "Flores",
		"street": "P.O. Box 598, 9810 Erat Rd.",
		"city": "Bremen",
		"state": "HB",
		"zip": "03000"
	},
	{
		"first": "Raja",
		"last": "Kim",
		"street": "Ap #701-8599 Enim, Road",
		"city": "Hamburg",
		"state": "HH",
		"zip": "53726"
	},
	{
		"first": "Honorato",
		"last": "Hess",
		"street": "Ap #690-1595 Vel, Street",
		"city": "Austin",
		"state": "Texas",
		"zip": "S1T 6V2"
	},
	{
		"first": "Stella",
		"last": "Hensley",
		"street": "Ap #849-1016 Aliquam Rd.",
		"city": "San José de Alajuela",
		"state": "Alajuela",
		"zip": "73746-643"
	},
	{
		"first": "Shoshana",
		"last": "Leblanc",
		"street": "P.O. Box 824, 5736 Sed Street",
		"city": "Zaltbommel",
		"state": "Gelderland",
		"zip": "843507"
	},
	{
		"first": "Belle",
		"last": "Washington",
		"street": "8301 Ultrices. St.",
		"city": "Hulst",
		"state": "Zl",
		"zip": "03313-487"
	},
	{
		"first": "Willow",
		"last": "Kinney",
		"street": "4294 Ante St.",
		"city": "Filacciano",
		"state": "Lazio",
		"zip": "37911"
	},
	{
		"first": "Yuri",
		"last": "Bowman",
		"street": "388-8148 Neque. Street",
		"city": "Barghe",
		"state": "LOM",
		"zip": "4246JT"
	},
	{
		"first": "Dominique",
		"last": "Powell",
		"street": "P.O. Box 633, 6533 Risus. Ave",
		"city": "Rockhampton",
		"state": "Queensland",
		"zip": "50601"
	},
	{
		"first": "Maryam",
		"last": "Jacobs",
		"street": "P.O. Box 213, 1814 Volutpat. Rd.",
		"city": "Latera",
		"state": "Lazio",
		"zip": "514670"
	},
	{
		"first": "Melanie",
		"last": "Matthews",
		"street": "8133 Amet Road",
		"city": "Ayr",
		"state": "AY",
		"zip": "5979BZ"
	},
	{
		"first": "Ebony",
		"last": "Banks",
		"street": "P.O. Box 326, 2308 Erat. Road",
		"city": "Istanbul",
		"state": "Ist",
		"zip": "36310"
	},
	{
		"first": "Lacy",
		"last": "Stark",
		"street": "3911 Duis Avenue",
		"city": "Habra",
		"state": "West Bengal",
		"zip": "5566RC"
	},
	{
		"first": "Madonna",
		"last": "Davenport",
		"street": "128-4686 Odio St.",
		"city": "Santa Maria",
		"state": "Rio Grande do Sul",
		"zip": "5608"
	},
	{
		"first": "Gabriel",
		"last": "Buckley",
		"street": "3226 Eget, Av.",
		"city": "Istanbul",
		"state": "Istanbul",
		"zip": "70700"
	},
	{
		"first": "Haley",
		"last": "Hoover",
		"street": "8388 Donec Rd.",
		"city": "São Gonçalo",
		"state": "RJ",
		"zip": "MI8 6LJ"
	},
	{
		"first": "Blair",
		"last": "Horn",
		"street": "Ap #743-5007 Nec, Street",
		"city": "Płock",
		"state": "Mazowieckie",
		"zip": "2472"
	},
	{
		"first": "Lois",
		"last": "Hartman",
		"street": "P.O. Box 326, 5704 Vitae Road",
		"city": "Welland",
		"state": "Ontario",
		"zip": "80703"
	},
	{
		"first": "Raphael",
		"last": "Blake",
		"street": "Ap #625-3891 Sagittis Ave",
		"city": "Luzzara",
		"state": "ERM",
		"zip": "634234"
	},
	{
		"first": "Chastity",
		"last": "Cruz",
		"street": "4596 Posuere Avenue",
		"city": "Dublin",
		"state": "L",
		"zip": "13475"
	},
	{
		"first": "Sonia",
		"last": "Pittman",
		"street": "108-6585 Libero Road",
		"city": "Itzehoe",
		"state": "Saarland",
		"zip": "9498"
	},
	{
		"first": "Yetta",
		"last": "Craft",
		"street": "Ap #273-2868 Metus. Avenue",
		"city": "Picton",
		"state": "SI",
		"zip": "69407"
	},
	{
		"first": "Laura",
		"last": "Slater",
		"street": "P.O. Box 823, 2697 At St.",
		"city": "Olsztyn",
		"state": "WM",
		"zip": "95344"
	},
	{
		"first": "Lydia",
		"last": "Payne",
		"street": "P.O. Box 154, 2091 Aliquam St.",
		"city": "Częstochowa",
		"state": "Sląskie",
		"zip": "66989"
	},
	{
		"first": "Grace",
		"last": "Dean",
		"street": "3344 Enim Ave",
		"city": "Lithgow",
		"state": "New South Wales",
		"zip": "2770"
	},
	{
		"first": "Barry",
		"last": "Adams",
		"street": "Ap #268-4231 Imperdiet, Av.",
		"city": "Ulloa (Barrial)",
		"state": "H",
		"zip": "H0B 1J3"
	},
	{
		"first": "Craig",
		"last": "Hensley",
		"street": "Ap #135-6846 Ut Avenue",
		"city": "Vienna",
		"state": "Vienna",
		"zip": "599204"
	},
	{
		"first": "Kevyn",
		"last": "Watson",
		"street": "4407 Mattis. St.",
		"city": "Mont-Saint-Andr�",
		"state": "WB",
		"zip": "11163"
	},
	{
		"first": "Lionel",
		"last": "Booth",
		"street": "Ap #264-4597 Lacus. Av.",
		"city": "Allahabad",
		"state": "UP",
		"zip": "30852-565"
	},
	{
		"first": "Bell",
		"last": "Olson",
		"street": "336-6021 Pellentesque St.",
		"city": "Accadia",
		"state": "Puglia",
		"zip": "01968"
	},
	{
		"first": "Reed",
		"last": "Holland",
		"street": "Ap #868-4462 In Rd.",
		"city": "Berlin",
		"state": "Berlin",
		"zip": "71306"
	},
	{
		"first": "Xantha",
		"last": "Ingram",
		"street": "P.O. Box 553, 8524 Dui Rd.",
		"city": "Vienna",
		"state": "Wie",
		"zip": "28875"
	},
	{
		"first": "Ariel",
		"last": "Singleton",
		"street": "Ap #252-8548 In Rd.",
		"city": "Thames",
		"state": "NI",
		"zip": "827855"
	},
	{
		"first": "Bryar",
		"last": "Huff",
		"street": "P.O. Box 618, 249 Sed Ave",
		"city": "Chesapeake",
		"state": "Virginia",
		"zip": "09224"
	},
	{
		"first": "Abraham",
		"last": "Mills",
		"street": "P.O. Box 774, 9483 Sapien, St.",
		"city": "Wagga Wagga",
		"state": "NSW",
		"zip": "29623"
	},
	{
		"first": "Stella",
		"last": "Oneal",
		"street": "909-1550 Suspendisse Rd.",
		"city": "Belfast",
		"state": "U",
		"zip": "7006"
	},
	{
		"first": "Grady",
		"last": "Davis",
		"street": "1236 Fusce Road",
		"city": "Hamburg",
		"state": "HH",
		"zip": "Y3V 9B7"
	},
	{
		"first": "Kylie",
		"last": "Howell",
		"street": "9610 Dui Rd.",
		"city": "Castelmarte",
		"state": "Lombardia",
		"zip": "3944"
	},
	{
		"first": "Scarlett",
		"last": "Galloway",
		"street": "9365 Libero Rd.",
		"city": "Boulogne-Billancourt",
		"state": "IL",
		"zip": "15005-747"
	},
	{
		"first": "John",
		"last": "Thornton",
		"street": "Ap #841-5351 A Street",
		"city": "Suruç",
		"state": "Şanlıurfa",
		"zip": "41120"
	}
]